[{"OBJECT_NAME":"SCS-01 L","OBJECT_ID":"2025-100L","EPOCH":"2026-03-09T23:34:47.606016","MEAN_MOTION":15.20947264,"ECCENTRICITY":0.00097838,"INCLINATION":97.3734,"RA_OF_ASC_NODE":144.0559,"ARG_OF_PERICENTER":283.1902,"MEAN_ANOMALY":76.8242,"EPHEMERIS_TYPE":0,"CLASSIFICATION_TYPE":"U","NORAD_CAT_ID":63992,"ELEMENT_SET_NO":999,"REV_AT_EPOCH":4553,"BSTAR":0.00095526864,"MEAN_MOTION_DOT":0.0002115,"MEAN_MOTION_DDOT":0},{"OBJECT_NAME":"TOMORROW-S8","OBJECT_ID":"2025-248R","EPOCH":"2026-03-08T08:30:15.739776","MEAN_MOTION":15.19548137,"ECCENTRICITY":0.0004521,"INCLINATION":45.397,"RA_OF_ASC_NODE":301.546,"ARG_OF_PERICENTER":191.3036,"MEAN_ANOMALY":168.7749,"EPHEMERIS_TYPE":0,"CLASSIFICATION_TYPE":"U","NORAD_CAT_ID":66308,"ELEMENT_SET_NO":999,"REV_AT_EPOCH":1917,"BSTAR":0.00031708392,"MEAN_MOTION_DOT":6.587e-5,"MEAN_MOTION_DDOT":0}]
